SL-14 R/B               
1 20262U 89080C   25291.93397625  .00000280  00000+0  76287-4 0  9993
2 20262  82.5886 264.1977 1231239 148.7539 219.3099 12.50363323642435
DELTA 1 R/B             
1 20323U 89089B   25291.86814952  .00000586  00000+0  15423-3 0  9992
2 20323  97.0820 156.7865 0068335 209.7463 149.9843 14.50505423875177
ARIANE 40 R/B           
1 20443U 90005H   25291.76783468  .00000489  00000+0  16973-3 0  9994
2 20443  98.3323 351.4790 0008918 271.6569  88.3598 14.39735219872387
DELTA 2 R/B(1)          
1 20453U 90008B   25291.93685184  .00049457  00000+0  91382-3 0  9998
2 20453  35.6089  13.0907 0119812  39.5182 321.4214 15.40391895904169
COSMOS 2058             
1 20465U 90010A   25291.96079945  .00006913  00000+0  42467-3 0  9999
2 20465  82.4737 186.8960 0010838  95.4282 264.8184 15.09880745920841
SL-14 R/B               
1 20466U 90010B   25291.77147812  .00000808  00000+0  95289-4 0  9996
2 20466  82.5047  40.6559 0020990  50.4589 309.8476 14.83394313907446
SL-14 R/B               
1 20511U 90018B   25291.65275083  .00000681  00000+0  82819-4 0  9998
2 20511  82.5243 355.8518 0016061 194.5134 165.5622 14.81971751901541
HST                     
1 20580U 90037B   25291.32326109  .00011762  00000+0  42306-3 0  9993
2 20580  28.4688 289.3844 0001918 345.0161  15.0377 15.26982151751512
SL-16 R/B               
1 20625U 90046B   25291.95895560  .00000330  00000+0  19490-3 0  9991
2 20625  70.9983 235.5620 0013733 168.5696 191.5742 14.14984824828343
COSMOS 2084             
1 20663U 90055A   25291.87677678  .00006595  00000+0  47424-3 0  9999
2 20663  62.7888  98.8591 0041188 168.2319 191.9754 15.04483513914970
SL-6 R/B(2)             
1 20666U 90055D   25291.94086030  .00004348  00000+0  33840-3 0  9997
2 20666  62.7861  15.5556 0010959 257.3497 102.6377 15.02676657916883
SL-8 R/B                
1 20775U 90078B   25291.72877048  .00035518  00000+0  11089-2 0  9999
2 20775  82.9102  18.4138 0385005 129.5024 234.0912 14.83215637788211
SL-8 R/B                
1 21088U 91006B   25291.98097344  .00000226  00000+0  21131-3 0  9998
2 21088  82.9382 275.4533 0023916  73.2315 340.8271 13.77476502744567
OKEAN-3                 
1 21397U 91039A   25291.92136895  .00006627  00000+0  48198-3 0  9999
2 21397  82.5135 114.0863 0015822  92.2560 268.0477 15.03572842843728
COSMOS 2151             
1 21422U 91042A   25291.90547163  .00003559  00000+0  28841-3 0  9998
2 21422  82.4988 220.3221 0012622 170.0794 190.0681 14.99380537841945
SL-14 R/B               
1 21423U 91042B   25291.87884262  .00000655  00000+0  80180-4 0  9998
2 21423  82.4956 353.1692 0016773 352.4283   7.6675 14.81668017832071
ERS-1                   
1 21574U 91050A   25291.95785670  .00000560  00000+0  19425-3 0  9994
2 21574  98.7940 301.6320 0030926 262.5462  97.2211 14.39302098795349
ARIANE 40 R/B           
1 21610U 91050F   25291.86036006  .00000595  00000+0  19136-3 0  9994
2 21610  98.2250 344.2497 0004061 131.0517 229.1025 14.42744096798545
INTERCOSMOS 25          
1 21819U 91086A   25291.81142590  .00002018  00000+0  38990-3 0  9996
2 21819  82.6091  35.7603 1489109  62.7314 311.7485 12.11513689479509
SL-8 R/B                
1 21876U 92008B   25291.78962381  .00000089  00000+0  76097-4 0  9995
2 21876  82.9314  13.3100 0035080 168.9260 313.5778 13.75943819689905
SL-8 R/B                
1 21938U 92020B   25291.99492022  .00000008  00000+0 -76137-5 0  9999
2 21938  82.9273 258.9729 0028490 336.2629  86.8153 13.75518413681657
USA 81                  
1 21949U 92023A   25291.84428327  .00000335  00000+0  11673-3 0  9999
2 21949  85.0112 213.2236 0002638  98.6815 261.4677 14.32296505 74482
COSMOS 2219             
1 22219U 92076A   25291.76007569  .00000194  00000+0  12661-3 0  9991
2 22219  71.0590 314.7620 0016260  53.3316 306.9298 14.14047052698311
SL-16 R/B               
1 22220U 92076B   25291.93893566  .00000057  00000+0  52427-4 0  9995
2 22220  70.9980 126.9663 0014698 305.4804 156.8664 14.16829346701758
COSMOS 2221             
1 22236U 92080A   25291.82225508  .00004276  00000+0  38416-3 0  9998
2 22236  82.5049  54.8628 0013537 312.7660  47.2422 14.95422345759586
SL-16 R/B               
1 22285U 92093B   25291.76175809 -.00000005  00000+0  22069-4 0  9992
2 22285  71.0212 302.2055 0004201 198.1479 161.9495 14.15420244693074
COSMOS 2228             
1 22286U 92094A   25291.93012944  .00004018  00000+0  35147-3 0  9990
2 22286  82.5223  12.9574 0019391  62.0064 298.3117 14.96368039754852
SL-16 R/B               
1 22566U 93016B   25291.92942530  .00000256  00000+0  15601-3 0  9991
2 22566  71.0067 152.9182 0010421 191.4834 168.6052 14.15277546682118
COSMOS 2242             
1 22626U 93024A   25291.78647444  .00004125  00000+0  36674-3 0  9999
2 22626  82.5213  42.3420 0017733  64.9564 295.3496 14.95762325759172
SL-16 R/B               
1 22803U 93059B   25291.74844665  .00000156  00000+0  10119-3 0  9990
2 22803  70.9897 310.4487 0015025  62.8466 297.4188 14.17197148659427
ARIANE 40 R/B           
1 22830U 93061H   25291.93767775  .00000395  00000+0  16108-3 0  9999
2 22830  98.5144 358.4477 0010344 350.2319   9.8663 14.32741175673802
COSMOS 2278             
1 23087U 94023A   25291.93576686 -.00000095  00000+0 -25188-4 0  9990
2 23087  71.0511 111.6656 0011127 251.5877 108.4036 14.14332921624767
SL-16 R/B               
1 23088U 94023B   25291.90588569  .00000218  00000+0  13703-3 0  9995
2 23088  71.0019   8.6401 0003075 192.5607 167.5440 14.14983219626031
SL-16 R/B               
1 23343U 94074B   25291.83701090  .00000848  00000+0  12085-3 0  9994
2 23343  97.7280 323.3024 0005856 335.5507 197.6486 14.79195589666275
SL-16 R/B               
1 23405U 94077B   25291.73078146 -.00000010  00000+0  19595-4 0  9990
2 23405  70.9819 291.1381 0003018 327.9425  32.1514 14.15541105596147
ARIANE 40+ R/B          
1 23561U 95021B   25291.77161637  .00000502  00000+0  17454-3 0  9991
2 23561  98.4717   0.0083 0006428 197.8394 276.1533 14.39631134598821
SL-16 R/B               
1 23705U 95058B   25291.94272140 -.00000184  00000+0 -69812-4 0  9996
2 23705  71.0183 117.8477 0013762 326.8490  33.1769 14.15467648547792
SL-16 R/B               
1 24298U 96051B   25291.95548592 -.00000102  00000+0 -28568-4 0  9999
2 24298  70.7575 115.2389 0016378 332.9255  27.1009 14.12393218501639
ORBVIEW 2 (SEASTAR)     
1 24883U 97037A   25291.91620267  .00000634  00000+0  23723-3 0  9995
2 24883  98.8430  87.6230 0003177 110.5016 249.6510 14.35353856488131
SL-16 R/B               
1 25400U 98043G   25291.85913599  .00000161  00000+0  86158-4 0  9992
2 25400  98.8021 239.3977 0010889  68.0917 292.1419 14.26004721418770
SL-16 R/B               
1 25407U 98045B   25291.95257435 -.00000158  00000+0 -55636-4 0  9997
2 25407  71.0083 119.6400 0009594 248.5800 111.4300 14.16161436407031
ISS (ZARYA)             
1 25544U 98067A   25291.71832000  .00014519  00000+0  26911-3 0  9991
2 25544  51.6337  54.8721 0004384 308.4952  51.5642 15.49218134534322
CZ-4B R/B               
1 25732U 99025C   25292.00281851  .00000135  00000+0  85966-4 0  9995
2 25732  98.6856 334.4828 0037696  33.8985  29.3137 14.18223580368086
OKEAN-O                 
1 25860U 99039A   25291.89475294  .00001255  00000+0  17276-3 0  9996
2 25860  97.9687 348.0511 0001946  87.2551 272.8883 14.80023508413411
SL-16 R/B               
1 25861U 99039B   25291.87543147  .00001063  00000+0  14239-3 0  9991
2 25861  98.0211 346.0014 0014846   3.0682 357.0619 14.81470020415867
DELTA 2 R/B             
1 25876U 99041E   25291.97118058  .00001258  00000+0  24095-3 0  9997
2 25876  51.7639 147.0252 0504449 290.3087  64.4328 14.11220478343015
HELIOS 1B               
1 25977U 99064A   25291.96599095  .00003227  00000+0  36722-3 0  9995
2 25977  98.1767 185.0187 0002041 116.5632 243.5792 14.86949302664195
TERRA                   
1 25994U 99068A   25291.93737649  .00000868  00000+0  18660-3 0  9993
2 25994  97.9833 345.6083 0000902 272.0892 131.5928 14.60858019374386
SL-16 R/B               
1 26070U 00006B   25291.71933648 -.00000211  00000+0 -82967-4 0  9992
2 26070  71.0042  36.3425 0015288  30.2760 329.9243 14.15794104328467
TITAN 4B R/B            
1 26474U 00047B   25291.90816795  .00008608  00000+0  55129-3 0  9994
2 26474  67.9888  78.7774 0044724 206.6171 153.2682 15.08135671371527
ENVISAT                 
1 27386U 02009A   25291.90570907  .00000263  00000+0  98978-4 0  9998
2 27386  98.3501 244.0635 0001332  87.6960 340.7547 14.38968558238788
IDEFIX & ARIANE 42P R/B 
1 27422U 02021B   25291.83186400  .00000544  00000+0  22382-3 0  9993
2 27422  98.5694 227.2618 0010715 243.7262 116.2820 14.30889919223737
AQUA                    
1 27424U 02022A   25291.92129306  .00001883  00000+0  38866-3 0  9999
2 27424  98.3946 251.9426 0001707  59.0451 333.8171 14.61610385248025
CZ-4B R/B               
1 27432U 02024C   25291.91867272  .00000107  00000+0  78063-4 0  9992
2 27432  98.9089 340.8582 0051105  66.1576 106.1171 14.14511560209192
MIDORI II (ADEOS-II)    
1 27597U 02056A   25291.89754391  .00000534  00000+0  22809-3 0  9993
2 27597  98.7536 244.5938 0002085  68.0410 292.0993 14.29148362190047
H-2A R/B                
1 27601U 02056E   25291.89313351  .00000533  00000+0  20203-3 0  9991
2 27601  98.2972 252.8600 0069387 223.5537 195.4610 14.33618462193791
CZ-4B R/B               
1 28059U 03049C   25291.98835833  .00000869  00000+0  21141-3 0  9990
2 28059  98.6746 276.4955 0047348 305.1230  54.5532 14.54829150165997
CZ-2C R/B               
1 28222U 04012C   25291.71585290  .00046744  00000+0  80256-3 0  9997
2 28222  97.7522 339.9764 0021422 110.6905 249.6645 15.50764113182183
SL-16 R/B               
1 28353U 04021B   25291.95986625 -.00000118  00000+0 -36693-4 0  9999
2 28353  71.0008 169.9212 0007529 260.9345  99.0926 14.14574746102798
